{
  "type": "FeatureCollection",
  "features": [
    {
      "type": "Feature",
      "properties": {
        "norad_id": 39617,
        "name": "ASTRA 5B (EGNOS/PRN 123)",
        "group": "gnss",
        "lat": -0.006134480083750193,
        "lon": -158.19222571930558,
        "alt_km": 35782.34230144461,
        "timestamp": "2025-12-27T05:29:39.445280+00:00",
        "meta_object_name": "ASTRA 5B (EGNOS/PRN 123)",
        "meta_object_id": "2014-011B",
        "meta_epoch": "2025-12-26T18:16:52.993344",
        "meta_mean_motion": 1.00271716,
        "meta_eccentricity": 0.00047236,
        "meta_inclination": 0.0463,
        "meta_ra_of_asc_node": 18.9055,
        "meta_arg_of_pericenter": 262.2936,
        "meta_mean_anomaly": 112.0152,
        "meta_ephemeris_type": 0,
        "meta_classification_type": "U",
        "meta_norad_cat_id": 39617,
        "meta_element_set_no": 999,
        "meta_rev_at_epoch": 4293,
        "meta_bstar": 0,
        "meta_mean_motion_dot": 1.59e-06,
        "meta_mean_motion_ddot": 0,
        "tle_line1": "1 39617U 14011B   25360.76172446  .00000159  00000+0  00000+0 0  9999",
        "tle_line2": "2 39617   0.0463  18.9055 0004723 262.2936 112.0152  1.00271716 42930"
      },
      "geometry": {
        "type": "Point",
        "coordinates": [
          -158.19222571930558,
          -0.006134480083750193
        ]
      }
    },
    {
      "type": "Feature",
      "properties": {
        "norad_id": 39620,
        "name": "COSMOS 2492 (754)",
        "group": "gnss",
        "lat": 64.64974285034954,
        "lon": 34.85566845844685,
        "alt_km": 19146.18862022318,
        "timestamp": "2025-12-27T05:29:39.445292+00:00",
        "meta_object_name": "COSMOS 2492 (754)",
        "meta_object_id": "2014-012A",
        "meta_epoch": "2025-12-26T15:36:55.855008",
        "meta_mean_motion": 2.13103318,
        "meta_eccentricity": 0.00143264,
        "meta_inclination": 65.4001,
        "meta_ra_of_asc_node": 319.7994,
        "meta_arg_of_pericenter": 314.1039,
        "meta_mean_anomaly": 45.7823,
        "meta_ephemeris_type": 0,
        "meta_classification_type": "U",
        "meta_norad_cat_id": 39620,
        "meta_element_set_no": 999,
        "meta_rev_at_epoch": 9156,
        "meta_bstar": 0,
        "meta_mean_motion_dot": -3.5e-07,
        "meta_mean_motion_ddot": 0,
        "tle_line1": "1 39620U 14012A   25360.65064647 -.00000035  00000+0  00000+0 0  9999",
        "tle_line2": "2 39620  65.4001 319.7994 0014326 314.1039  45.7823  2.13103318 91569"
      },
      "geometry": {
        "type": "Point",
        "coordinates": [
          34.85566845844685,
          64.64974285034954
        ]
      }
    },
    {
      "type": "Feature",
      "properties": {
        "norad_id": 39635,
        "name": "IRNSS-1B",
        "group": "gnss",
        "lat": -4.835614322815976,
        "lon": -125.29744831585741,
        "alt_km": 35864.85557513832,
        "timestamp": "2025-12-27T05:29:39.445304+00:00",
        "meta_object_name": "IRNSS-1B",
        "meta_object_id": "2014-017A",
        "meta_epoch": "2025-12-26T18:07:21.626688",
        "meta_mean_motion": 1.00272789,
        "meta_eccentricity": 0.00185522,
        "meta_inclination": 29.2303,
        "meta_ra_of_asc_node": 243.3531,
        "meta_arg_of_pericenter": 173.082,
        "meta_mean_anomaly": 6.0255,
        "meta_ephemeris_type": 0,
        "meta_classification_type": "U",
        "meta_norad_cat_id": 39635,
        "meta_element_set_no": 999,
        "meta_rev_at_epoch": 4306,
        "meta_bstar": 0,
        "meta_mean_motion_dot": 1.37e-06,
        "meta_mean_motion_ddot": 0,
        "tle_line1": "1 39635U 14017A   25360.75511142  .00000137  00000+0  00000+0 0  9990",
        "tle_line2": "2 39635  29.2303 243.3531 0018552 173.0820   6.0255  1.00272789 43067"
      },
      "geometry": {
        "type": "Point",
        "coordinates": [
          -125.29744831585741,
          -4.835614322815976
        ]
      }
    },
    {
      "type": "Feature",
      "properties": {
        "norad_id": 39727,
        "name": "LUCH 5V (SDCM/PRN 141)",
        "group": "gnss",
        "lat": -1.7548271686395003,
        "lon": -86.94891956927712,
        "alt_km": 35770.13998864563,
        "timestamp": "2025-12-27T05:29:39.445315+00:00",
        "meta_object_name": "LUCH 5V (SDCM/PRN 141)",
        "meta_object_id": "2014-023A",
        "meta_epoch": "2025-12-26T20:14:04.970976",
        "meta_mean_motion": 1.00273298,
        "meta_eccentricity": 0.00038328,
        "meta_inclination": 4.7031,
        "meta_ra_of_asc_node": 71.4175,
        "meta_arg_of_pericenter": 214.8808,
        "meta_mean_anomaly": 207.5564,
        "meta_ephemeris_type": 0,
        "meta_classification_type": "U",
        "meta_norad_cat_id": 39727,
        "meta_element_set_no": 999,
        "meta_rev_at_epoch": 4263,
        "meta_bstar": 0,
        "meta_mean_motion_dot": -2.49e-06,
        "meta_mean_motion_ddot": 0,
        "tle_line1": "1 39727U 14023A   25360.84311309 -.00000249  00000+0  00000+0 0  9997",
        "tle_line2": "2 39727   4.7031  71.4175 0003832 214.8808 207.5564  1.00273298 42633"
      },
      "geometry": {
        "type": "Point",
        "coordinates": [
          -86.94891956927712,
          -1.7548271686395003
        ]
      }
    },
    {
      "type": "Feature",
      "properties": {
        "norad_id": 39741,
        "name": "GPS BIIF-6  (PRN 06)",
        "group": "gnss",
        "lat": -15.439774711968498,
        "lon": 168.7066652666396,
        "alt_km": 20238.334577295518,
        "timestamp": "2025-12-27T05:29:39.445327+00:00",
        "meta_object_name": "GPS BIIF-6  (PRN 06)",
        "meta_object_id": "2014-026A",
        "meta_epoch": "2025-12-26T22:52:18.643584",
        "meta_mean_motion": 2.00560233,
        "meta_eccentricity": 0.00395243,
        "meta_inclination": 56.578,
        "meta_ra_of_asc_node": 338.2238,
        "meta_arg_of_pericenter": 319.4951,
        "meta_mean_anomaly": 40.2191,
        "meta_ephemeris_type": 0,
        "meta_classification_type": "U",
        "meta_norad_cat_id": 39741,
        "meta_element_set_no": 999,
        "meta_rev_at_epoch": 8508,
        "meta_bstar": 0,
        "meta_mean_motion_dot": -5.7e-07,
        "meta_mean_motion_ddot": 0,
        "tle_line1": "1 39741U 14026A   25360.95299356 -.00000057  00000+0  00000+0 0  9992",
        "tle_line2": "2 39741  56.5780 338.2238 0039524 319.4951  40.2191  2.00560233 85080"
      },
      "geometry": {
        "type": "Point",
        "coordinates": [
          168.7066652666396,
          -15.439774711968498
        ]
      }
    },
    {
      "type": "Feature",
      "properties": {
        "norad_id": 40001,
        "name": "COSMOS 2500 (755)",
        "group": "gnss",
        "lat": -42.71128863507185,
        "lon": -65.55303848710575,
        "alt_km": 19135.505379034825,
        "timestamp": "2025-12-27T05:29:39.445338+00:00",
        "meta_object_name": "COSMOS 2500 (755)",
        "meta_object_id": "2014-032A",
        "meta_epoch": "2025-12-26T08:28:54.444288",
        "meta_mean_motion": 2.13106178,
        "meta_eccentricity": 0.0007619,
        "meta_inclination": 65.3358,
        "meta_ra_of_asc_node": 319.5702,
        "meta_arg_of_pericenter": 219.616,
        "meta_mean_anomaly": 140.3327,
        "meta_ephemeris_type": 0,
        "meta_classification_type": "U",
        "meta_norad_cat_id": 40001,
        "meta_element_set_no": 999,
        "meta_rev_at_epoch": 8977,
        "meta_bstar": 0,
        "meta_mean_motion_dot": -3.4e-07,
        "meta_mean_motion_ddot": 0,
        "tle_line1": "1 40001U 14032A   25360.35340792 -.00000034  00000+0  00000+0 0  9990",
        "tle_line2": "2 40001  65.3358 319.5702 0007619 219.6160 140.3327  2.13106178 89772"
      },
      "geometry": {
        "type": "Point",
        "coordinates": [
          -65.55303848710575,
          -42.71128863507185
        ]
      }
    },
    {
      "type": "Feature",
      "properties": {
        "norad_id": 40105,
        "name": "GPS BIIF-7  (PRN 09)",
        "group": "gnss",
        "lat": 33.93234320401205,
        "lon": -112.4916653801493,
        "alt_km": 20094.926044130338,
        "timestamp": "2025-12-27T05:29:39.445349+00:00",
        "meta_object_name": "GPS BIIF-7  (PRN 09)",
        "meta_object_id": "2014-045A",
        "meta_epoch": "2025-12-23T13:11:32.096256",
        "meta_mean_motion": 2.00573211,
        "meta_eccentricity": 0.00324114,
        "meta_inclination": 55.2352,
        "meta_ra_of_asc_node": 95.4677,
        "meta_arg_of_pericenter": 120.1575,
        "meta_mean_anomaly": 240.1743,
        "meta_ephemeris_type": 0,
        "meta_classification_type": "U",
        "meta_norad_cat_id": 40105,
        "meta_element_set_no": 999,
        "meta_rev_at_epoch": 8255,
        "meta_bstar": 0,
        "meta_mean_motion_dot": 8e-08,
        "meta_mean_motion_ddot": 0,
        "tle_line1": "1 40105U 14045A   25357.54967704  .00000008  00000+0  00000+0 0  9994",
        "tle_line2": "2 40105  55.2352  95.4677 0032411 120.1575 240.1743  2.00573211 82556"
      },
      "geometry": {
        "type": "Point",
        "coordinates": [
          -112.4916653801493,
          33.93234320401205
        ]
      }
    }
  ]
}